[{"OBJECT_NAME":"STARLINK-30389","OBJECT_ID":"2023-134N","EPOCH":"2026-03-09T22:00:01.999584","MEAN_MOTION":15.16403467,"ECCENTRICITY":0.00019924,"INCLINATION":43.0002,"RA_OF_ASC_NODE":195.6102,"ARG_OF_PERICENTER":266.5595,"MEAN_ANOMALY":76.2223,"EPHEMERIS_TYPE":0,"CLASSIFICATION_TYPE":"U","NORAD_CAT_ID":57783,"ELEMENT_SET_NO":999,"REV_AT_EPOCH":578,"BSTAR":0.003849227,"MEAN_MOTION_DOT":0.00076742,"MEAN_MOTION_DDOT":0},{"OBJECT_NAME":"AC1-003","OBJECT_ID":"2025-276Z","EPOCH":"2026-03-09T17:12:51.689952","MEAN_MOTION":15.17742943,"ECCENTRICITY":0.0003195,"INCLINATION":97.4278,"RA_OF_ASC_NODE":143.9026,"ARG_OF_PERICENTER":29.6743,"MEAN_ANOMALY":330.4672,"EPHEMERIS_TYPE":0,"CLASSIFICATION_TYPE":"U","NORAD_CAT_ID":66689,"ELEMENT_SET_NO":999,"REV_AT_EPOCH":1531,"BSTAR":0.00015796492,"MEAN_MOTION_DOT":3.121e-5,"MEAN_MOTION_DDOT":0}]
